{"type": "FeatureCollection", "features": [{"type": "Feature", "geometry": {"type": "Point", "coordinates": [126.978, 37.5665]}, "properties": {"statId": "SAMPLE001", "statNm": "샘플 충전소 (시청 공영주차장)", "addr": "서울특별시 중구 세종대로 110", "addrDetail": "공영주차장 지상 1층", "location": "입구 진입 후 우측", "useTime": "24시간 이용가능", "busiNm": "한국환경공단", "busiCall": "1899-0001", "parkingFree": "Y", "limitYn": "N", "limitDetail": "", "floorType": "F", "floorNum": "1", "chargers": [{"chgerId": "01", "chgerType": "02", "chgerTypeName": "AC완속", "stat": "2", "statName": "사용가능", "output": "7", "method": "단독", "statUpdDt": ""}, {"chgerId": "02", "chgerType": "02", "chgerTypeName": "AC완속", "stat": "3", "statName": "충전중", "output": "7", "method": "단독", "statUpdDt": ""}]}}, {"type": "Feature", "geometry": {"type": "Point", "coordinates": [127.028, 37.4979]}, "properties": {"statId": "SAMPLE002", "statNm": "샘플 충전소 (강남 환승주차장)", "addr": "서울특별시 강남구 테헤란로 152", "addrDetail": "지하 2층", "location": "", "useTime": "06:00~24:00", "busiNm": "샘플운영사", "busiCall": "1600-0000", "parkingFree": "Y", "limitYn": "N", "limitDetail": "일부 구역은 관리사무소 확인 필요", "floorType": "B", "floorNum": "2", "chargers": [{"chgerId": "01", "chgerType": "09", "chgerTypeName": "NACS", "stat": "5", "statName": "점검중", "output": "11", "method": "단독", "statUpdDt": ""}]}}], "meta": {"lastStatusUpdate": {"time": "2026-08-04T13:30:18+09:00", "updated": 0, "status": "ok"}}}